[
    {
        "CCSDS_OMM_VERS": "3.0",
        "COMMENT": "GENERATED VIA SPACE-TRACK.ORG API",
        "CREATION_DATE": "2025-03-02T18:08:23",
        "ORIGINATOR": "18 SPCS",
        "OBJECT_NAME": "GALILEO 12 (269)",
        "OBJECT_ID": "2015-079A",
        "CENTER_NAME": "EARTH",
        "REF_FRAME": "TEME",
        "TIME_SYSTEM": "UTC",
        "MEAN_ELEMENT_THEORY": "SGP4",
        "EPOCH": "2025-03-01T20:07:58.323936",
        "MEAN_MOTION": "1.70474744",
        "ECCENTRICITY": "0.00044960",
        "INCLINATION": "55.5487",
        "RA_OF_ASC_NODE": "114.2320",
        "ARG_OF_PERICENTER": "312.6408",
        "MEAN_ANOMALY": "47.4132",
        "EPHEMERIS_TYPE": "0",
        "CLASSIFICATION_TYPE": "U",
        "NORAD_CAT_ID": "41174",
        "ELEMENT_SET_NO": "999",
        "REV_AT_EPOCH": "5672",
        "BSTAR": "0.00000000000000",
        "MEAN_MOTION_DOT": "0.00000027",
        "MEAN_MOTION_DDOT": "0.0000000000000",
        "SEMIMAJOR_AXIS": "29600.234",
        "PERIOD": "844.700",
        "APOAPSIS": "23235.407",
        "PERIAPSIS": "23208.791",
        "OBJECT_TYPE": "PAYLOAD",
        "RCS_SIZE": "LARGE",
        "COUNTRY_CODE": "ESA",
        "LAUNCH_DATE": "2015-12-17",
        "SITE": "FRGUI",
        "DECAY_DATE": null,
        "FILE": "4657142",
        "GP_ID": "282085419",
        "TLE_LINE0": "0 GALILEO 12 (269)",
        "TLE_LINE1": "1 41174U 15079A   25060.83886949  .00000027  00000-0  00000-0 0  9996",
        "TLE_LINE2": "2 41174  55.5487 114.2320 0004496 312.6408  47.4132  1.70474744 56722"
    }
]